CCSDS_OMM_VERS = 2.0
CREATION_DATE  = 
ORIGINATOR     = 

OBJECT_NAME    = ALOS-2
OBJECT_ID      = 2014-029A
CENTER_NAME    = EARTH
REF_FRAME      = TEME
TIME_SYSTEM    = UTC
MEAN_ELEMENT_THEORY = SGP/SGP4

EPOCH          = 2026-03-14T06:00:07.632576
MEAN_MOTION    = 14.79524808
ECCENTRICITY   = .00015027
INCLINATION    = 97.9189
RA_OF_ASC_NODE = 171.7812
ARG_OF_PERICENTER = 95.9172
MEAN_ANOMALY   = 264.2211

EPHEMERIS_TYPE = 0
CLASSIFICATION_TYPE = U
NORAD_CAT_ID   = 39766
ELEMENT_SET_NO = 999
REV_AT_EPOCH   = 63754
BSTAR          = .28753602E-3
MEAN_MOTION_DOT = .2099E-4
MEAN_MOTION_DDOT = 0

CCSDS_OMM_VERS = 2.0
CREATION_DATE  = 
ORIGINATOR     = 

OBJECT_NAME    = YAOGAN-29
OBJECT_ID      = 2015-069A
CENTER_NAME    = EARTH
REF_FRAME      = TEME
TIME_SYSTEM    = UTC
MEAN_ELEMENT_THEORY = SGP/SGP4

EPOCH          = 2026-03-14T07:33:44.831808
MEAN_MOTION    = 14.83003663
ECCENTRICITY   = .00016468
INCLINATION    = 98.0146
RA_OF_ASC_NODE = 101.7575
ARG_OF_PERICENTER = 30.2033
MEAN_ANOMALY   = 329.9275

EPHEMERIS_TYPE = 0
CLASSIFICATION_TYPE = U
NORAD_CAT_ID   = 41038
ELEMENT_SET_NO = 999
REV_AT_EPOCH   = 55656
BSTAR          = .14420183E-3
MEAN_MOTION_DOT = .1118E-4
MEAN_MOTION_DDOT = 0

CCSDS_OMM_VERS = 2.0
CREATION_DATE  = 
ORIGINATOR     = 

OBJECT_NAME    = ASTRO-H (HITOMI)
OBJECT_ID      = 2016-012A
CENTER_NAME    = EARTH
REF_FRAME      = TEME
TIME_SYSTEM    = UTC
MEAN_ELEMENT_THEORY = SGP/SGP4

EPOCH          = 2026-03-13T23:55:26.753088
MEAN_MOTION    = 15.10037711
ECCENTRICITY   = .00096977
INCLINATION    = 31.0005
RA_OF_ASC_NODE = 328.7535
ARG_OF_PERICENTER = 14.3140
MEAN_ANOMALY   = 345.7772

EPHEMERIS_TYPE = 0
CLASSIFICATION_TYPE = U
NORAD_CAT_ID   = 41337
ELEMENT_SET_NO = 999
REV_AT_EPOCH   = 55288
BSTAR          = .20635591E-3
MEAN_MOTION_DOT = .3537E-4
MEAN_MOTION_DDOT = 0

CCSDS_OMM_VERS = 2.0
CREATION_DATE  = 
ORIGINATOR     = 

OBJECT_NAME    = HXMT (HUIYAN)
OBJECT_ID      = 2017-034A
CENTER_NAME    = EARTH
REF_FRAME      = TEME
TIME_SYSTEM    = UTC
MEAN_ELEMENT_THEORY = SGP/SGP4

EPOCH          = 2026-03-14T06:04:59.585952
MEAN_MOTION    = 15.17536773
ECCENTRICITY   = .0033267
INCLINATION    = 43.0161
RA_OF_ASC_NODE = 351.3001
ARG_OF_PERICENTER = 263.7105
MEAN_ANOMALY   = 95.9953

EPHEMERIS_TYPE = 0
CLASSIFICATION_TYPE = U
NORAD_CAT_ID   = 42758
ELEMENT_SET_NO = 999
REV_AT_EPOCH   = 48323
BSTAR          = .37482709E-3
MEAN_MOTION_DOT = .7533E-4
MEAN_MOTION_DDOT = 0

CCSDS_OMM_VERS = 2.0
CREATION_DATE  = 
ORIGINATOR     = 

OBJECT_NAME    = SAOCOM 1A
OBJECT_ID      = 2018-076A
CENTER_NAME    = EARTH
REF_FRAME      = TEME
TIME_SYSTEM    = UTC
MEAN_ELEMENT_THEORY = SGP/SGP4

EPOCH          = 2026-03-14T06:48:32.061888
MEAN_MOTION    = 14.82145414
ECCENTRICITY   = .00014784
INCLINATION    = 97.8900
RA_OF_ASC_NODE = 261.3908
ARG_OF_PERICENTER = 86.8286
MEAN_ANOMALY   = 273.3096

EPHEMERIS_TYPE = 0
CLASSIFICATION_TYPE = U
NORAD_CAT_ID   = 43641
ELEMENT_SET_NO = 999
REV_AT_EPOCH   = 40204
BSTAR          = .50519401E-4
MEAN_MOTION_DOT = .35E-5
MEAN_MOTION_DDOT = 0

CCSDS_OMM_VERS = 2.0
CREATION_DATE  = 
ORIGINATOR     = 

OBJECT_NAME    = H-2A R/B
OBJECT_ID      = 2018-084L
CENTER_NAME    = EARTH
REF_FRAME      = TEME
TIME_SYSTEM    = UTC
MEAN_ELEMENT_THEORY = SGP/SGP4

EPOCH          = 2026-03-14T03:31:42.457152
MEAN_MOTION    = 15.41552916
ECCENTRICITY   = .00250206
INCLINATION    = 98.8733
RA_OF_ASC_NODE = 291.4883
ARG_OF_PERICENTER = 10.0917
MEAN_ANOMALY   = 350.0822

EPHEMERIS_TYPE = 0
CLASSIFICATION_TYPE = U
NORAD_CAT_ID   = 43682
ELEMENT_SET_NO = 999
REV_AT_EPOCH   = 40646
BSTAR          = .58330899E-3
MEAN_MOTION_DOT = .24709E-3
MEAN_MOTION_DDOT = 0

CCSDS_OMM_VERS = 2.0
CREATION_DATE  = 
ORIGINATOR     = 

OBJECT_NAME    = SAOCOM 1B
OBJECT_ID      = 2020-059A
CENTER_NAME    = EARTH
REF_FRAME      = TEME
TIME_SYSTEM    = UTC
MEAN_ELEMENT_THEORY = SGP/SGP4

EPOCH          = 2026-03-14T01:04:39.385920
MEAN_MOTION    = 14.82151938
ECCENTRICITY   = .00013837
INCLINATION    = 97.8899
RA_OF_ASC_NODE = 260.2532
ARG_OF_PERICENTER = 84.3427
MEAN_ANOMALY   = 275.7944

EPHEMERIS_TYPE = 0
CLASSIFICATION_TYPE = U
NORAD_CAT_ID   = 46265
ELEMENT_SET_NO = 999
REV_AT_EPOCH   = 29939
BSTAR          = .26755151E-4
MEAN_MOTION_DOT = .161E-5
MEAN_MOTION_DDOT = 0

CCSDS_OMM_VERS = 2.0
CREATION_DATE  = 
ORIGINATOR     = 

OBJECT_NAME    = CSS (TIANHE)
OBJECT_ID      = 2021-035A
CENTER_NAME    = EARTH
REF_FRAME      = TEME
TIME_SYSTEM    = UTC
MEAN_ELEMENT_THEORY = SGP/SGP4

EPOCH          = 2026-03-14T00:03:53.258400
MEAN_MOTION    = 15.60904690
ECCENTRICITY   = .0006689
INCLINATION    = 41.4663
RA_OF_ASC_NODE = 181.9138
ARG_OF_PERICENTER = 299.3968
MEAN_ANOMALY   = 60.6202

EPHEMERIS_TYPE = 0
CLASSIFICATION_TYPE = U
NORAD_CAT_ID   = 48274
ELEMENT_SET_NO = 999
REV_AT_EPOCH   = 27828
BSTAR          = .34787289E-3
MEAN_MOTION_DOT = .29757E-3
MEAN_MOTION_DDOT = 0

CCSDS_OMM_VERS = 2.0
CREATION_DATE  = 
ORIGINATOR     = 

OBJECT_NAME    = COSMOS 2550
OBJECT_ID      = 2021-056A
CENTER_NAME    = EARTH
REF_FRAME      = TEME
TIME_SYSTEM    = UTC
MEAN_ELEMENT_THEORY = SGP/SGP4

EPOCH          = 2026-03-12T09:16:30.213120
MEAN_MOTION    = 15.33837293
ECCENTRICITY   = .0008377
INCLINATION    = 67.1461
RA_OF_ASC_NODE = 32.7743
ARG_OF_PERICENTER = 269.6455
MEAN_ANOMALY   = 90.3740

EPHEMERIS_TYPE = 0
CLASSIFICATION_TYPE = U
NORAD_CAT_ID   = 48865
ELEMENT_SET_NO = 999
REV_AT_EPOCH   = 26387
BSTAR          = .60433E-7
MEAN_MOTION_DOT = -.19E-5
MEAN_MOTION_DDOT = 0

CCSDS_OMM_VERS = 2.0
CREATION_DATE  = 
ORIGINATOR     = 

OBJECT_NAME    = CZ-2C R/B
OBJECT_ID      = 2022-058K
CENTER_NAME    = EARTH
REF_FRAME      = TEME
TIME_SYSTEM    = UTC
MEAN_ELEMENT_THEORY = SGP/SGP4

EPOCH          = 2026-03-14T04:55:24.015648
MEAN_MOTION    = 15.54577487
ECCENTRICITY   = .00420418
INCLINATION    = 50.1892
RA_OF_ASC_NODE = 295.0565
ARG_OF_PERICENTER = 220.0572
MEAN_ANOMALY   = 139.7296

EPHEMERIS_TYPE = 0
CLASSIFICATION_TYPE = U
NORAD_CAT_ID   = 52794
ELEMENT_SET_NO = 999
REV_AT_EPOCH   = 21083
BSTAR          = .56958543E-3
MEAN_MOTION_DOT = .39594E-3
MEAN_MOTION_DDOT = 0

CCSDS_OMM_VERS = 2.0
CREATION_DATE  = 
ORIGINATOR     = 

OBJECT_NAME    = CZ-2C R/B
OBJECT_ID      = 2022-132E
CENTER_NAME    = EARTH
REF_FRAME      = TEME
TIME_SYSTEM    = UTC
MEAN_ELEMENT_THEORY = SGP/SGP4

EPOCH          = 2026-03-13T23:37:03.802656
MEAN_MOTION    = 15.62274493
ECCENTRICITY   = .00203034
INCLINATION    = 97.2962
RA_OF_ASC_NODE = 76.4326
ARG_OF_PERICENTER = 77.8450
MEAN_ANOMALY   = 282.5081

EPHEMERIS_TYPE = 0
CLASSIFICATION_TYPE = U
NORAD_CAT_ID   = 54039
ELEMENT_SET_NO = 999
REV_AT_EPOCH   = 19104
BSTAR          = .60169899E-3
MEAN_MOTION_DOT = .53711E-3
MEAN_MOTION_DDOT = 0

CCSDS_OMM_VERS = 2.0
CREATION_DATE  = 
ORIGINATOR     = 

OBJECT_NAME    = GSLV R/B
OBJECT_ID      = 2022-138AN
CENTER_NAME    = EARTH
REF_FRAME      = TEME
TIME_SYSTEM    = UTC
MEAN_ELEMENT_THEORY = SGP/SGP4

EPOCH          = 2026-03-14T06:24:24.490368
MEAN_MOTION    = 14.96811964
ECCENTRICITY   = .00235137
INCLINATION    = 87.3879
RA_OF_ASC_NODE = 164.8304
ARG_OF_PERICENTER = 131.2422
MEAN_ANOMALY   = 229.0841

EPHEMERIS_TYPE = 0
CLASSIFICATION_TYPE = U
NORAD_CAT_ID   = 54149
ELEMENT_SET_NO = 999
REV_AT_EPOCH   = 18461
BSTAR          = .34542462E-3
MEAN_MOTION_DOT = .4004E-4
MEAN_MOTION_DDOT = 0

