ALOS-2                  
1 39766U 14029A   26073.25008834  .00002099  00000+0  28754-3 0  9993
2 39766  97.9189 171.7812 0001502  95.9172 264.2211 14.79524808637545
YAOGAN-29               
1 41038U 15069A   26073.31510222  .00001118  00000+0  14420-3 0  9995
2 41038  98.0146 101.7575 0001646  30.2033 329.9275 14.83003663556568
ASTRO-H (HITOMI)        
1 41337U 16012A   26072.99683742  .00003537  00000+0  20636-3 0  9990
2 41337  31.0005 328.7535 0009697  14.3140 345.7772 15.10037711552885
HXMT (HUIYAN)           
1 42758U 17034A   26073.25346743  .00007533  00000+0  37483-3 0  9998
2 42758  43.0161 351.3001 0033267 263.7105  95.9953 15.17536773483236
SAOCOM 1A               
1 43641U 18076A   26073.28370442  .00000350  00000+0  50519-4 0  9999
2 43641  97.8900 261.3908 0001478  86.8286 273.3096 14.82145414402044
H-2A R/B                
1 43682U 18084L   26073.14701918  .00024709  00000+0  58331-3 0  9997
2 43682  98.8733 291.4883 0025020  10.0917 350.0822 15.41552916406464
SAOCOM 1B               
1 46265U 20059A   26073.04490030  .00000161  00000+0  26755-4 0  9993
2 46265  97.8899 260.2532 0001383  84.3427 275.7944 14.82151938299390
CSS (TIANHE)            
1 48274U 21035A   26073.00269975  .00029757  00000+0  34787-3 0  9993
2 48274  41.4663 181.9138 0006689 299.3968  60.6202 15.60904690278280
COSMOS 2550             
1 48865U 21056A   26071.38646080 -.00000190  00000+0  60433-7 0  9999
2 48865  67.1461  32.7743 0008377 269.6455  90.3740 15.33837293263879
CZ-2C R/B               
1 52794U 22058K   26073.20513907  .00039594  00000+0  56959-3 0  9995
2 52794  50.1892 295.0565 0042041 220.0572 139.7296 15.54577487210839
CZ-2C R/B               
1 54039U 22132E   26072.98407179  .00053711  00000+0  60170-3 0  9996
2 54039  97.2962  76.4326 0020303  77.8450 282.5081 15.62274493191049
GSLV R/B                
1 54149U 22138AN  26073.26695012  .00004004  00000+0  34542-3 0  9996
2 54149  87.3879 164.8304 0023513 131.2422 229.0841 14.96811964184617
